STARLINK-3003
1 18879C 21059A   21326.12170303 -.00006810  00000-0 -35554-3 0  3260
2 18879  97.5264  93.5164 0009019 152.2316  70.9751 15.15970595    15
